P/2016 R4 (Gibbs),e,10.8728,168.2839,174.1306,5.334407,0.0799972,0.47560097,218.4715,01/15.0/2024,2000,g 12.5,4.0
# From MPC105543
P/2016 S1 (PANSTARRS),e,94.7395,227.6772,273.2132,8.271931,0.0414280,0.71108513,103.3089,01/15.0/2024,2000,g 12.0,4.0
# From MPC106345
P/2016 WM48 (Lemmon),e,117.6283,59.9510,36.1715,8.172571,0.0421858,0.78363341,106.1102,01/15.0/2024,2000,g 15.0,4.0
# From MPEC 2021-P47
C/2016 X1 (Lemmon),e,26.4660,256.3118,224.5191,1693,0.0000141,0.99553723,0.0000,04/28.7410/2019,2000,g  6.0,4.0
# From MPEC 2022-OB6
C/2017 B3 (LINEAR),e,54.1751,2.1903,284.8292,9237,0.0000011,0.99957418,0.0000,01/31.3686/2019,2000,g  6.0,4.0
# From MPC103847
P/2017 B4 (PANSTARRS),e,20.0584,121.4578,11.0197,4.410520,0.1064068,0.36495152,359.9130,01/05.0/2017,2000,g 14.5,4.0
# From MPEC 2022-OB6
P/2017 D1 (Fuls),e,20.7720,82.1987,7.9810,4.825711,0.0929741,0.43751592,256.6189,01/15.0/2024,2000,g 14.0,4.0
# From MPEC 2022-OB6
P/2017 D4 (PANSTARRS),e,10.5554,264.9023,212.1333,7.544344,0.0475633,0.62981458,127.7489,01/15.0/2024,2000,g 13.0,4.0
# From MPC104794
P/2017 G1 (PANSTARRS),e,4.7886,249.7087,224.2910,7.271476,0.0502655,0.65457926,141.5777,01/15.0/2024,2000,g 13.5,4.0
# From MPC108595
P/2017 G2 (PANSTARRS),e,47.9670,79.8849,105.3009,8.043773,0.0432030,0.64791066,104.1638,01/15.0/2024,2000,g 13.0,4.0
# From MPEC 2024-AF0
C/2017 K2 (PANSTARRS),h,12/19.6508/2022,87.5707,88.2325,236.2049,1.000560,1.797472,2000,1.5,4.0
# From MPEC 2021-N06
P/2017 K3 (Gasparovic),e,4.2736,354.3047,253.3366,5.584996,0.0746741,0.57890299,181.1702,01/15.0/2024,2000,g 14.5,4.0
# From MPEC 2021-P47
C/2017 K5 (PANSTARRS),h,03/26.9360/2020,82.2670,102.4291,172.0386,1.004053,7.685045,2000,5.0,4.0
# From MPEC 2022-OB6
C/2017 M4 (ATLAS),h,01/17.9223/2019,105.6264,66.0120,167.5382,1.000850,3.245837,2000,6.0,4.0
# From MPC114599
P/2017 P1 (PANSTARRS),e,7.6878,221.4625,122.7834,7.919471,0.0442242,0.31014994,89.8701,01/15.0/2024,2000,g 10.0,4.0
# From MPEC 2022-OB6
P/2017 S8 (PANSTARRS),e,29.8455,191.5340,254.8668,2.778755,0.2127789,0.39096766,103.5570,01/15.0/2024,2000,g 16.0,4.0
# From MPEC 2024-A43
C/2017 T2 (PANSTARRS),e,57.2883,64.4443,92.8475,1489,0.0000172,0.99891895,0.0000,05/05.1136/2020,2000,g  5.0,4.0
# From MPC115882
P/2017 TW13 (Lemmon),e,44.8658,322.2218,119.9183,7.135221,0.0517122,0.71064248,105.0915,01/15.0/2024,2000,g 15.0,2.0
# From MPEC 2022-K19
P/2017 U3 (PANSTARRS),e,15.9178,165.0890,296.2278,4.922244,0.0902525,0.10026164,156.8668,01/15.0/2024,2000,g 11.0,4.0
# From MPEC 2023-A50
C/2017 U7 (PANSTARRS),h,09/15.9225/2019,142.6288,276.2945,326.4618,1.002465,6.427550,2000,8.3,2.0
# From MPC114601
P/2017 W3 (Gibbs),e,18.1736,210.1553,327.7776,7.824927,0.0450281,0.50643546,96.7631,01/15.0/2024,2000,g 10.5,4.0
# From MPEC 2022-TD3
C/2017 Y2 (PANSTARRS),h,11/04.9192/2020,128.4346,66.0453,147.9114,1.000720,4.632409,2000,15.0,4.0
# From MPC111770
P/2017 Y3 (Leonard),e,27.5877,153.9109,67.4940,9.808145,0.0320866,0.86932330,69.5578,01/15.0/2024,2000,g 16.5,4.0
# From MPEC 2021-P47
C/2018 A3 (ATLAS),e,139.5559,194.3074,86.3906,348.1431,0.0001517,0.99056765,0.0000,01/09.7749/2019,2000,g  8.5,4.0
# From MPC109147
P/2018 A5 (PANSTARRS),e,23.6152,87.7837,359.5004,5.626168,0.0738559,0.52408809,170.0025,01/15.0/2024,2000,g 15.0,4.0
# From MPEC 2023-UR6
C/2018 A6 (Gibbs),e,77.0933,340.4035,264.3213,15.01830,0.0169345,0.79900037,27.9297,01/15.0/2024,2000,g  9.0,4.0
# From MPC114601
P/2018 C1 (Lemmon-Read),e,5.1073,270.2893,235.7107,5.651190,0.0733659,0.53222134,157.8676,01/15.0/2024,2000,g 13.5,4.0
# From MPEC 2022-M88
C/2018 DO4 (Lemmon),e,160.4459,251.3943,176.3232,25.42427,0.0076883,0.90501154,12.3931,01/15.0/2024,2000,g 11.0,4.0
# From MPEC 2021-R75
C/2018 F1 (Grauer),e,46.1046,177.2859,71.5379,227.7590,0.0002867,0.98684283,0.0000,12/10.9094/2018,2000,g 11.5,4.0
# From MPEC 2023-A50
C/2018 F4 (PANSTARRS),e,78.0878,26.5168,263.2088,2764,0.0000068,0.99875348,0.0000,12/02.1329/2019,2000,g 11.0,6.0
# From MPEC 2021-Y10
C/2018 F4-A,e,78.0880,26.5170,263.2056,2652,0.0000072,0.99870052,0.0000,12/02.1211/2019,2000,g 11.0,6.0
# From MPEC 2023-D41
C/2018 F4-B,e,78.0889,26.5165,263.1914,2846,0.0000065,0.99878931,0.0000,12/02.0579/2019,2000,g 11.0,6.0
# From MPC114602
P/2018 H2 (PANSTARRS),e,7.4187,67.9879,119.5626,4.393363,0.1070307,0.54113050,235.9568,01/15.0/2024,2000,g 16.6,2.0
# From MPEC 2021-R75
C/2018 KJ3 (Lemmon),e,136.6437,91.6795,217.6161,849.9903,0.0000398,0.99573831,0.0000,09/09.7905/2019,2000,g 12.2,2.0
# From MPC114602
P/2018 L1 (PANSTARRS),e,10.5792,268.5958,18.0096,3.655507,0.1410206,0.48135168,266.7974,01/15.0/2024,2000,g 15.0,4.0
# From MPEC 2021-P47
C/2018 L2 (ATLAS),e,67.2094,242.9863,56.3466,248.5818,0.0002515,0.99308557,0.0000,12/01.2606/2018,2000,g 10.0,4.0
# From MPC114603
P/2018 L4 (PANSTARRS),e,26.6032,145.2060,140.5790,4.947024,0.0895753,0.65846297,178.7792,01/15.0/2024,2000,g 17.5,4.0
# From MPC119996
P/2018 L5 (Leonard),e,2.2089,219.0577,93.9299,3.629233,0.1425548,0.36390577,296.5770,01/15.0/2024,2000,g 14.5,4.0
# From MPEC 2022-YN2
C/2018 N2 (ASASSN),h,11/11.7411/2019,77.5501,24.4934,25.2595,1.001513,3.130949,2000,6.0,4.0
# From MPEC 2023-XP6
P/2018 P3 (PANSTARRS),e,8.9149,59.1596,306.0124,3.004224,0.1892803,0.41724967,3.6451,01/15.0/2024,2000,g 14.5,4.0
# From MPC114603
P/2018 P4 (PANSTARRS),e,23.1007,353.1408,8.4623,6.690301,0.0569555,0.45007950,107.8165,01/15.0/2024,2000,g 12.0,4.0
# From MPEC 2021-P47
C/2018 P5 (PANSTARRS),e,7.2458,216.2509,132.0068,12.85277,0.0213899,0.64254192,38.1215,01/15.0/2024,2000,g 11.0,4.0
# From MPC118841
C/2018 R3 (Lemmon),e,69.7162,324.5316,112.7146,1627,0.0000150,0.99921165,0.0000,06/08.0071/2019,2000,g  9.5,4.0
# From MPC114603
C/2018 R5 (Lemmon),e,103.7325,171.1969,178.2345,22.95477,0.0089618,0.84155682,16.4046,01/15.0/2024,2000,g 11.5,4.0
# From MPEC 2022-QC6
C/2018 S2 (TESS),e,64.1240,85.1207,290.8510,14.36869,0.0180958,0.61864965,34.2966,01/15.0/2024,2000,g  7.5,4.0
# From MPEC 2023-N01
C/2018 U1 (Lemmon),h,11/02.8927/2021,108.3241,75.5072,180.4452,1.001187,4.991274,2000,5.0,4.0
# From MPC114604
C/2018 V1 (Machholz-Fujikawa-Iwamoto),h,12/03.0804/2018,144.1430,129.2928,89.3332,1.000403,0.391733,2000,12.0,4.0
# From MPC115884
C/2018 V2 (ATLAS),e,159.1667,357.1170,319.1349,25.14524,0.0078166,0.90096418,14.6689,01/15.0/2024,2000,g 15.0,4.0
# From MPEC 2023-CD7
P/2018 VN2 (Leonard),e,18.2603,226.4411,138.9167,4.061753,0.1204020,0.47853505,246.4101,01/15.0/2024,2000,g 15.0,4.0
# From MPEC 2022-VC5
A/2018 V3,e,164.9436,308.7525,3.6150,128.4805,0.0006768,0.98959198,0.0000,09/09.8250/2019,2000,g 15.7,2.0
# From MPEC 2022-M21
C/2018 V4 (Africano),e,69.0317,78.2644,359.9860,207.6558,0.0003294,0.98460905,0.0000,03/02.0490/2019,2000,g 12.5,4.0
# From MPEC 2021-P47
P/2018 V5 (Trujillo-Sheppard),e,10.5866,171.3241,260.7032,8.968795,0.0366947,0.47590221,70.7468,01/15.0/2024,2000,g 12.5,4.0
# From MPEC 2021-P47
C/2018 W1 (Catalina),e,83.4210,233.6558,251.2067,21.70659,0.0097458,0.93751154,16.6505,01/15.0/2024,2000,g 15.5,2.0
# From MPEC 2021-P47
C/2018 W2 (Africano),h,09/05.3368/2019,116.6054,181.8596,158.1524,1.000771,1.464230,2000,9.5,4.0
# From MPEC 2023-M14
A/2018 W3,e,104.8346,251.6849,313.9442,717.2965,0.0000513,0.99402105,0.0000,04/13.0884/2021,2000,g 10.7,2.0
# From MPC119996
C/2018 X2 (Fitzsimmons),e,23.0825,340.7513,161.9402,139.1011,0.0006008,0.98478850,0.0000,07/08.6919/2019,2000,g 12.0,4.0
# From MPC114604
C/2018 X3 (PANSTARRS),e,43.4147,78.8101,359.7763,12.38826,0.0226042,0.78283684,41.5936,01/15.0/2024,2000,g 14.5,4.0
# From MPEC 2024-A43
C/2018 Y1 (Iwamoto),e,160.4352,147.4309,357.8743,127.6106,0.0006837,0.98992221,0.0000,02/04.9091/2019,2000,g 11.5,4.0
# From MPC114605
P/2018 Y2 (Africano),e,11.6884,297.1630,162.2771,7.453611,0.0484344,0.47970938,89.0302,01/15.0/2024,2000,g 11.5,4.0
# From MPC114605
P/2019 A1 (PANSTARRS),e,13.7580,312.2418,150.7216,5.114462,0.0852127,0.56973696,163.6731,01/15.0/2024,2000,g 16.0,4.0
# From MPEC 2021-P47
P/2019 A2 (ATLAS),e,14.8646,139.4068,323.8712,5.711915,0.0721990,0.38273609,135.7544,01/15.0/2024,2000,g 10.5,4.0
# From MPEC 2022-M21
P/2019 A3 (PANSTARRS),e,15.3748,31.3556,325.6492,3.143711,0.1768236,0.26609538,351.5723,01/15.0/2024,2000,g 16.0,4.0
# From MPEC 2022-L66
P/2019 A4 (PANSTARRS),e,13.3044,119.3660,343.0401,2.614219,0.2331800,0.08728842,73.9540,01/15.0/2024,2000,g 15.0,4.0
# From MPEC 2021-P47
C/2019 A5 (PANSTARRS),e,67.5484,146.5747,355.7753,21.47721,0.0099023,0.70612160,16.6715,01/15.0/2024,2000,g  9.5,4.0
# From MPC114605
P/2019 A6 (Lemmon-PANSTARRS),e,33.2746,280.1948,156.1956,5.356930,0.0794932,0.64029386,156.0245,01/15.0/2024,2000,g 16.0,4.0
# From MPC115884
P/2019 A8 (PANSTARRS),e,2.2100,114.5339,64.2607,4.327457,0.1094851,0.22905628,225.0269,01/15.0/2024,2000,g 16.0,4.0
# From MPC118842
C/2019 A9 (PANSTARRS),e,84.3255,278.4366,237.9069,39.16002,0.0040220,0.96348754,6.5713,01/15.0/2024,2000,g 15.0,4.0
# From MPEC 2022-L66
C/2019 B1 (Africano),e,123.4287,290.3009,174.7734,138.1844,0.0006068,0.98844351,0.0000,03/18.7454/2019,2000,g 16.0,4.0
# From MPC115885
P/2019 B2 (Groeller),e,16.9811,175.7311,0.8460,3.920556,0.1269646,0.35856864,215.6293,01/15.0/2024,2000,g 14.5,4.0
# From MPEC 2024-A43
C/2019 B3 (PANSTARRS),e,66.5507,358.4242,263.9722,7004,0.0000017,0.99902533,0.0000,01/20.0530/2021,2000,g  5.5,4.0
# From MPEC 2021-P47
C/2019 C1 (ATLAS),e,36.0514,212.3920,319.0327,646.8376,0.0000599,0.98983909,0.0000,05/04.0842/2020,2000,g 10.0,4.0
# From MPEC 2022-O08
C/2019 D1 (Flewelling),e,33.9960,231.6472,70.7247,140.6587,0.0005908,0.98870335,0.0000,05/10.4481/2019,2000,g 13.0,4.0
# From MPEC 2024-AF0
C/2019 E3 (ATLAS),e,84.2994,347.2301,280.7011,7397,0.0000015,0.99860580,0.0000,11/15.3070/2023,2000,g  2.5,4.0
# From MPEC 2024-AF0
C/2019 F1 (ATLAS-Africano),h,06/22.3410/2021,54.2358,38.6637,251.3408,1.001741,3.607148,2000,5.5,4.0
# From MPEC 2021-P47
C/2019 F2 (ATLAS),e,19.2987,175.4027,11.6419,16.59127,0.0145843,0.86466865,23.1970,01/15.0/2024,2000,g 12.0,4.0
# From MPEC 2021-P47
